[
  {
    "OBJECT_NAME": "STARLINK-3599",
    "OBJECT_ID": "22017AY",
    "EPOCH": "2025-11-11T06:11:41.161920",
    "MEAN_MOTION": 15.08845454,
    "ECCENTRICITY": 0.0001508,
    "INCLINATION": 53.2156,
    "RA_OF_ASC_NODE": 140.7802,
    "ARG_OF_PERICENTER": 89.859,
    "MEAN_ANOMALY": 270.2575,
    "EPHEMERIS_TYPE": 0,
    "CLASSIFICATION_TYPE": "U",
    "NORAD_CAT_ID": 51814,
    "ELEMENT_SET_NO": 999,
    "REV_AT_EPOCH": 20620,
    "BSTAR": 8.3337e-05,
    "MEAN_MOTION_DOT": 1.039e-05,
    "MEAN_MOTION_DDOT": 0.0,
    "TLE_LINE1": "1 51814U 22017AY  25315.25811530  .00001039  00000+0  83337-4 0  9992",
    "TLE_LINE2": "2 51814  53.2156 140.7802 0001508  89.8590 270.2575 15.08845454206200",
    "COMMENT": "Grouped by shell and plane from TLE"
  },
  {
    "OBJECT_NAME": "STARLINK-3604",
    "OBJECT_ID": "22017AZ",
    "EPOCH": "2025-11-10T22:20:03.656832",
    "MEAN_MOTION": 15.08842734,
    "ECCENTRICITY": 0.0001288,
    "INCLINATION": 53.2154,
    "RA_OF_ASC_NODE": 142.2508,
    "ARG_OF_PERICENTER": 91.5649,
    "MEAN_ANOMALY": 268.5491,
    "EPHEMERIS_TYPE": 0,
    "CLASSIFICATION_TYPE": "U",
    "NORAD_CAT_ID": 51815,
    "ELEMENT_SET_NO": 999,
    "REV_AT_EPOCH": 20615,
    "BSTAR": 6.5696e-05,
    "MEAN_MOTION_DOT": 7.58e-06,
    "MEAN_MOTION_DDOT": 0.0,
    "TLE_LINE1": "1 51815U 22017AZ  25314.93059788  .00000758  00000+0  65696-4 0  9991",
    "TLE_LINE2": "2 51815  53.2154 142.2508 0001288  91.5649 268.5491 15.08842734206158",
    "COMMENT": "Grouped by shell and plane from TLE"
  },
  {
    "OBJECT_NAME": "STARLINK-3603",
    "OBJECT_ID": "22017BA",
    "EPOCH": "2025-11-11T05:04:13.086912",
    "MEAN_MOTION": 15.08841516,
    "ECCENTRICITY": 6.96e-05,
    "INCLINATION": 53.2152,
    "RA_OF_ASC_NODE": 141.2325,
    "ARG_OF_PERICENTER": 93.0475,
    "MEAN_ANOMALY": 267.0597,
    "EPHEMERIS_TYPE": 0,
    "CLASSIFICATION_TYPE": "U",
    "NORAD_CAT_ID": 51816,
    "ELEMENT_SET_NO": 999,
    "REV_AT_EPOCH": 20624,
    "BSTAR": 0.00014360000000000002,
    "MEAN_MOTION_DOT": 1.999e-05,
    "MEAN_MOTION_DDOT": 0.0,
    "TLE_LINE1": "1 51816U 22017BA  25315.21126258  .00001999  00000+0  14360-3 0  9990",
    "TLE_LINE2": "2 51816  53.2152 141.2325 0000696  93.0475 267.0597 15.08841516206247",
    "COMMENT": "Grouped by shell and plane from TLE"
  },
  {
    "OBJECT_NAME": "STARLINK-5175",
    "OBJECT_ID": "22136AE",
    "EPOCH": "2025-11-11T06:29:36.639744",
    "MEAN_MOTION": 15.08854091,
    "ECCENTRICITY": 9.1e-05,
    "INCLINATION": 53.2148,
    "RA_OF_ASC_NODE": 145.9461,
    "ARG_OF_PERICENTER": 94.4215,
    "MEAN_ANOMALY": 265.6881,
    "EPHEMERIS_TYPE": 0,
    "CLASSIFICATION_TYPE": "U",
    "NORAD_CAT_ID": 54079,
    "ELEMENT_SET_NO": 999,
    "REV_AT_EPOCH": 16910,
    "BSTAR": 0.0,
    "MEAN_MOTION_DOT": -7.68e-06,
    "MEAN_MOTION_DDOT": 0.0,
    "TLE_LINE1": "1 54079U 22136AE  25315.27056296 -.00000768  00000+0 -30144-4 0  9990",
    "TLE_LINE2": "2 54079  53.2148 145.9461 0000910  94.4215 265.6881 15.08854091169109",
    "COMMENT": "Grouped by shell and plane from TLE"
  },
  {
    "OBJECT_NAME": "STARLINK-5210",
    "OBJECT_ID": "22136AH",
    "EPOCH": "2025-11-11T06:24:18.626400",
    "MEAN_MOTION": 15.08846286,
    "ECCENTRICITY": 0.0001564,
    "INCLINATION": 53.2141,
    "RA_OF_ASC_NODE": 145.9254,
    "ARG_OF_PERICENTER": 91.0733,
    "MEAN_ANOMALY": 269.0439,
    "EPHEMERIS_TYPE": 0,
    "CLASSIFICATION_TYPE": "U",
    "NORAD_CAT_ID": 54082,
    "ELEMENT_SET_NO": 999,
    "REV_AT_EPOCH": 16910,
    "BSTAR": 0.00014340000000000002,
    "MEAN_MOTION_DOT": 1.995e-05,
    "MEAN_MOTION_DDOT": 0.0,
    "TLE_LINE1": "1 54082U 22136AH  25315.26688225  .00001995  00000+0  14340-3 0  9996",
    "TLE_LINE2": "2 54082  53.2141 145.9254 0001564  91.0733 269.0439 15.08846286169104",
    "COMMENT": "Grouped by shell and plane from TLE"
  },
  {
    "OBJECT_NAME": "STARLINK-5178",
    "OBJECT_ID": "22136AJ",
    "EPOCH": "2025-11-10T22:11:27.847104",
    "MEAN_MOTION": 15.08845559,
    "ECCENTRICITY": 0.0001496,
    "INCLINATION": 53.2157,
    "RA_OF_ASC_NODE": 147.3435,
    "ARG_OF_PERICENTER": 96.0432,
    "MEAN_ANOMALY": 264.073,
    "EPHEMERIS_TYPE": 0,
    "CLASSIFICATION_TYPE": "U",
    "NORAD_CAT_ID": 54083,
    "ELEMENT_SET_NO": 999,
    "REV_AT_EPOCH": 16905,
    "BSTAR": 0.00011586,
    "MEAN_MOTION_DOT": 1.557e-05,
    "MEAN_MOTION_DDOT": 0.0,
    "TLE_LINE1": "1 54083U 22136AJ  25314.92462786  .00001557  00000+0  11586-3 0  9994",
    "TLE_LINE2": "2 54083  53.2157 147.3435 0001496  96.0432 264.0730 15.08845559169059",
    "COMMENT": "Grouped by shell and plane from TLE"
  },
  {
    "OBJECT_NAME": "STARLINK-5183",
    "OBJECT_ID": "22136AK",
    "EPOCH": "2025-11-10T22:22:06.233376",
    "MEAN_MOTION": 15.08824861,
    "ECCENTRICITY": 0.0001605,
    "INCLINATION": 53.2166,
    "RA_OF_ASC_NODE": 147.3893,
    "ARG_OF_PERICENTER": 87.5667,
    "MEAN_ANOMALY": 272.5509,
    "EPHEMERIS_TYPE": 0,
    "CLASSIFICATION_TYPE": "U",
    "NORAD_CAT_ID": 54084,
    "ELEMENT_SET_NO": 999,
    "REV_AT_EPOCH": 16905,
    "BSTAR": 0.00018523999999999998,
    "MEAN_MOTION_DOT": 2.66e-05,
    "MEAN_MOTION_DDOT": 0.0,
    "TLE_LINE1": "1 54084U 22136AK  25314.93201659  .00002660  00000+0  18524-3 0  9991",
    "TLE_LINE2": "2 54084  53.2166 147.3893 0001605  87.5667 272.5509 15.08824861169056",
    "COMMENT": "Grouped by shell and plane from TLE"
  },
  {
    "OBJECT_NAME": "STARLINK-5166",
    "OBJECT_ID": "22136AL",
    "EPOCH": "2025-11-10T23:42:54.371520",
    "MEAN_MOTION": 15.08854962,
    "ECCENTRICITY": 0.0001366,
    "INCLINATION": 53.2144,
    "RA_OF_ASC_NODE": 147.0292,
    "ARG_OF_PERICENTER": 96.3814,
    "MEAN_ANOMALY": 263.7334,
    "EPHEMERIS_TYPE": 0,
    "CLASSIFICATION_TYPE": "U",
    "NORAD_CAT_ID": 54085,
    "ELEMENT_SET_NO": 999,
    "REV_AT_EPOCH": 16906,
    "BSTAR": 0.00019085,
    "MEAN_MOTION_DOT": 2.752e-05,
    "MEAN_MOTION_DDOT": 0.0,
    "TLE_LINE1": "1 54085U 22136AL  25314.98812930  .00002752  00000+0  19085-3 0  9992",
    "TLE_LINE2": "2 54085  53.2144 147.0292 0001366  96.3814 263.7334 15.08854962169063",
    "COMMENT": "Grouped by shell and plane from TLE"
  },
  {
    "OBJECT_NAME": "STARLINK-5184",
    "OBJECT_ID": "22136AN",
    "EPOCH": "2025-11-10T19:37:42.477600",
    "MEAN_MOTION": 15.08844199,
    "ECCENTRICITY": 0.0001374,
    "INCLINATION": 53.214,
    "RA_OF_ASC_NODE": 147.3974,
    "ARG_OF_PERICENTER": 90.2219,
    "MEAN_ANOMALY": 269.893,
    "EPHEMERIS_TYPE": 0,
    "CLASSIFICATION_TYPE": "U",
    "NORAD_CAT_ID": 54087,
    "ELEMENT_SET_NO": 999,
    "REV_AT_EPOCH": 16904,
    "BSTAR": 9.948800000000001e-05,
    "MEAN_MOTION_DOT": 1.296e-05,
    "MEAN_MOTION_DDOT": 0.0,
    "TLE_LINE1": "1 54087U 22136AN  25314.81785275  .00001296  00000+0  99488-4 0  9995",
    "TLE_LINE2": "2 54087  53.2140 147.3974 0001374  90.2219 269.8930 15.08844199169040",
    "COMMENT": "Grouped by shell and plane from TLE"
  },
  {
    "OBJECT_NAME": "STARLINK-5153",
    "OBJECT_ID": "22136AP",
    "EPOCH": "2025-11-11T06:13:41.803104",
    "MEAN_MOTION": 15.08843648,
    "ECCENTRICITY": 0.000147,
    "INCLINATION": 53.2144,
    "RA_OF_ASC_NODE": 145.8797,
    "ARG_OF_PERICENTER": 89.7694,
    "MEAN_ANOMALY": 270.3467,
    "EPHEMERIS_TYPE": 0,
    "CLASSIFICATION_TYPE": "U",
    "NORAD_CAT_ID": 54088,
    "ELEMENT_SET_NO": 999,
    "REV_AT_EPOCH": 16910,
    "BSTAR": 0.00013344,
    "MEAN_MOTION_DOT": 1.837e-05,
    "MEAN_MOTION_DDOT": 0.0,
    "TLE_LINE1": "1 54088U 22136AP  25315.25951161  .00001837  00000+0  13344-3 0  9991",
    "TLE_LINE2": "2 54088  53.2144 145.8797 0001470  89.7694 270.3467 15.08843648169105",
    "COMMENT": "Grouped by shell and plane from TLE"
  },
  {
    "OBJECT_NAME": "STARLINK-5143",
    "OBJECT_ID": "22136AQ",
    "EPOCH": "2025-11-11T05:41:51.553536",
    "MEAN_MOTION": 15.08840483,
    "ECCENTRICITY": 0.0001317,
    "INCLINATION": 53.215,
    "RA_OF_ASC_NODE": 145.7424,
    "ARG_OF_PERICENTER": 90.4842,
    "MEAN_ANOMALY": 269.6301,
    "EPHEMERIS_TYPE": 0,
    "CLASSIFICATION_TYPE": "U",
    "NORAD_CAT_ID": 54089,
    "ELEMENT_SET_NO": 999,
    "REV_AT_EPOCH": 16910,
    "BSTAR": 1.4349000000000001e-05,
    "MEAN_MOTION_DOT": -6e-07,
    "MEAN_MOTION_DDOT": 0.0,
    "TLE_LINE1": "1 54089U 22136AQ  25315.23740224 -.00000060  00000+0  14349-4 0  9991",
    "TLE_LINE2": "2 54089  53.2150 145.7424 0001317  90.4842 269.6301 15.08840483169105",
    "COMMENT": "Grouped by shell and plane from TLE"
  },
  {
    "OBJECT_NAME": "STARLINK-5177",
    "OBJECT_ID": "22136AR",
    "EPOCH": "2025-11-11T05:47:10.125024",
    "MEAN_MOTION": 15.08839453,
    "ECCENTRICITY": 0.0001299,
    "INCLINATION": 53.2167,
    "RA_OF_ASC_NODE": 145.7647,
    "ARG_OF_PERICENTER": 87.7309,
    "MEAN_ANOMALY": 272.3832,
    "EPHEMERIS_TYPE": 0,
    "CLASSIFICATION_TYPE": "U",
    "NORAD_CAT_ID": 54090,
    "ELEMENT_SET_NO": 999,
    "REV_AT_EPOCH": 16910,
    "BSTAR": 7.155200000000001e-05,
    "MEAN_MOTION_DOT": 8.51e-06,
    "MEAN_MOTION_DDOT": 0.0,
    "TLE_LINE1": "1 54090U 22136AR  25315.24108941  .00000851  00000+0  71552-4 0  9994",
    "TLE_LINE2": "2 54090  53.2167 145.7647 0001299  87.7309 272.3832 15.08839453169103",
    "COMMENT": "Grouped by shell and plane from TLE"
  },
  {
    "OBJECT_NAME": "STARLINK-5221",
    "OBJECT_ID": "22136AS",
    "EPOCH": "2025-11-10T19:32:24.010656",
    "MEAN_MOTION": 15.0884154,
    "ECCENTRICITY": 0.0001598,
    "INCLINATION": 53.2157,
    "RA_OF_ASC_NODE": 147.3728,
    "ARG_OF_PERICENTER": 89.6933,
    "MEAN_ANOMALY": 270.4242,
    "EPHEMERIS_TYPE": 0,
    "CLASSIFICATION_TYPE": "U",
    "NORAD_CAT_ID": 54091,
    "ELEMENT_SET_NO": 999,
    "REV_AT_EPOCH": 16904,
    "BSTAR": 0.00010605,
    "MEAN_MOTION_DOT": 1.4e-05,
    "MEAN_MOTION_DDOT": 0.0,
    "TLE_LINE1": "1 54091U 22136AS  25314.81416679  .00001400  00000+0  10605-3 0  9999",
    "TLE_LINE2": "2 54091  53.2157 147.3728 0001598  89.6933 270.4242 15.08841540169044",
    "COMMENT": "Grouped by shell and plane from TLE"
  }
]